MESON-1                 
1 59131U 24043AK  26068.90019075  .00008544  00000+0  29748-3 0  9998
2 59131  97.5469 205.2839 0009545 227.1432 132.9007 15.29893494111890
STARLINK-35739          
1 67053U 25294Z   26068.92542193  .00034379  00000+0  12524-2 0  9991
2 67053  42.9976  36.8746 0000320 229.3795 130.7029 15.27596095 14833
