[{"OBJECT_NAME":"MESON-1","OBJECT_ID":"2024-043AK","EPOCH":"2026-03-09T21:36:16.481664","MEAN_MOTION":15.29893494,"ECCENTRICITY":0.00095452,"INCLINATION":97.5469,"RA_OF_ASC_NODE":205.2839,"ARG_OF_PERICENTER":227.1432,"MEAN_ANOMALY":132.9007,"EPHEMERIS_TYPE":0,"CLASSIFICATION_TYPE":"U","NORAD_CAT_ID":59131,"ELEMENT_SET_NO":999,"REV_AT_EPOCH":11189,"BSTAR":0.0002974823,"MEAN_MOTION_DOT":8.544e-5,"MEAN_MOTION_DDOT":0},{"OBJECT_NAME":"STARLINK-35739","OBJECT_ID":"2025-294Z","EPOCH":"2026-03-09T22:12:36.454752","MEAN_MOTION":15.27596095,"ECCENTRICITY":3.199e-5,"INCLINATION":42.9976,"RA_OF_ASC_NODE":36.8746,"ARG_OF_PERICENTER":229.3795,"MEAN_ANOMALY":130.7029,"EPHEMERIS_TYPE":0,"CLASSIFICATION_TYPE":"U","NORAD_CAT_ID":67053,"ELEMENT_SET_NO":999,"REV_AT_EPOCH":1483,"BSTAR":0.0012524078,"MEAN_MOTION_DOT":0.00034379,"MEAN_MOTION_DDOT":0}]
